{
    "links": {
        "self": "http://www.neowsapp.com/rest/v1/neo/3713938?api_key=iIulBulltgU6a56xZRHN4H3l9WmuAYTsLGpBGhQ2"
    },
    "id": "3713938",
    "neo_reference_id": "3713938",
    "name": "(2015 FV33)",
    "designation": "2015 FV33",
    "nasa_jpl_url": "http://ssd.jpl.nasa.gov/sbdb.cgi?sstr=3713938",
    "absolute_magnitude_h": 26.3,
    "estimated_diameter": {
        "kilometers": {
            "estimated_diameter_min": 0.0146067964,
            "estimated_diameter_max": 0.0326617897
        },
        "meters": {
            "estimated_diameter_min": 14.6067964271,
            "estimated_diameter_max": 32.6617897446
        },
        "miles": {
            "estimated_diameter_min": 0.0090762397,
            "estimated_diameter_max": 0.020295089
        },
        "feet": {
            "estimated_diameter_min": 47.92256199,
            "estimated_diameter_max": 107.1581062656
        }
    },
    "is_potentially_hazardous_asteroid": false,
    "close_approach_data": [
        {
            "close_approach_date": "2015-03-03",
            "close_approach_date_full": "2015-Mar-03 07:48",
            "epoch_date_close_approach": 1425368880000,
            "relative_velocity": {
                "kilometers_per_second": "6.2937143888",
                "kilometers_per_hour": "22657.3717998151",
                "miles_per_hour": "14078.4097163906"
            },
            "miss_distance": {
                "astronomical": "0.0211670488",
                "lunar": "8.2339819832",
                "kilometers": "3166545.414666056",
                "miles": "1967600.0818453328"
            },
            "orbiting_body": "Earth"
        }
    ],
    "orbital_data": {
        "orbit_id": "4",
        "orbit_determination_date": "2017-04-06 08:34:59",
        "first_observation_date": "2015-03-18",
        "last_observation_date": "2015-03-27",
        "data_arc_in_days": 9,
        "observations_used": 13,
        "orbit_uncertainty": "8",
        "minimum_orbit_intersection": ".021154",
        "jupiter_tisserand_invariant": "3.990",
        "epoch_osculation": "2457100.5",
        "eccentricity": ".4379724281994349",
        "semi_major_axis": "1.767075900218913",
        "inclination": "3.49743573647348",
        "ascending_node_longitude": "177.4186078491173",
        "orbital_period": "857.9880375045909",
        "perihelion_distance": ".9931453773873334",
        "perihelion_argument": "328.6729296573302",
        "aphelion_distance": "2.541006423050492",
        "perihelion_time": "2457071.284345766802",
        "mean_anomaly": "12.25848737301888",
        "mean_motion": ".4195862695790484",
        "equinox": "J2000",
        "orbit_class": {
            "orbit_class_type": "APO",
            "orbit_class_description": "Near-Earth asteroid orbits which cross the Earth’s orbit similar to that of 1862 Apollo",
            "orbit_class_range": "a (semi-major axis) > 1.0 AU; q (perihelion) < 1.017 AU"
        }
    },
    "is_sentry_object": false
}